Postcode,Stroke Team,long,lat,LSOA11CD,LSOA11NM,LSOA11NMW,LSOA11NMW,LSOA11BNG_E,LSOA11BNG_N,LSOA11LONG,LSOA11LAT,MSOA11CD,MSOA11NM,CCG19CD,CCG19NM,ICB22CD,ICB22NM,LAD17CD,LAD17NM,STP19CD,STP19NM,LHB20CD,LHB20NM,LHB20NMW,SCN17CD,SCN17NM,RGN11CD,RGN11NM,CTRY11NM
B152TH,Queen Elizabeth Hospital Edgbaston,-1.9362835,52.453272,E01033562,Birmingham 087F,Birmingham 087F,Birmingham 087F,403869.0,283830.0,-1.94449,52.45242,E02001913,Birmingham 087,E38000220,NHS Birmingham and Solihull CCG,E54000055,NHS Birmingham and Solihull Integrated Care Board,E08000025,Birmingham,E54000017,Birmingham and Solihull,,,,E55000008,West Midlands,E12000005,West Midlands,England
B714HJ,Sandwell District Hospital,-1.9878844,52.527357,E01010104,Sandwell 017E,Sandwell 017E,Sandwell 017E,401051.0,291579.0,-1.98593,52.5221,E02002059,Sandwell 017,E38000144,NHS Sandwell and West Birmingham CCG,E54000062,NHS Black Country Integrated Care Board,E08000028,Sandwell,E54000016,The Black Country and West Birmingham,,,,E55000008,West Midlands,E12000005,West Midlands,England
BA13NG,Royal United Hospital Bath,-2.3905661,51.392764,E01014428,Bath and North East Somerset 008B,Bath and North East Somerset 008B,Bath and North East Somerset 008B,373014.0,165767.0,-2.38922,51.39029,E02002992,Bath and North East Somerset 008,E38000009,NHS Bath and North East Somerset CCG,E54000040,"NHS Bath and North East Somerset, Swindon and Wiltshire Integrated Care Board",E06000022,Bath and North East Somerset,E54000040,"Bath and North East Somerset, Swindon and Wiltshire",,,,E55000009,South West,E12000009,South West,England
BA214AT,Yeovil District Hospital,-2.6339071,50.945297,E01029231,South Somerset 014A,South Somerset 014A,South Somerset 014A,355602.0,116961.0,-2.6334,50.95035,E02006088,South Somerset 014,E38000150,NHS Somerset CCG,E54000038,NHS Somerset Integrated Care Board,E07000189,South Somerset,E54000038,Somerset,,,,E55000009,South West,E12000009,South West,England
BB23HH,Royal Blackburn Hospital,-2.4668058,53.736622,E01012632,Blackburn with Darwen 011F,Blackburn with Darwen 011F,Blackburn with Darwen 011F,369969.0,426153.0,-2.45667,53.73091,E02002625,Blackburn with Darwen 011,E38000014,NHS Blackburn with Darwen CCG,E54000048,NHS Lancashire and South Cumbria Integrated Care Board,E06000008,Blackburn with Darwen,E54000048,Healthier Lancashire and South Cumbria,,,,E55000003,"Greater Manchester, Lancashire and South Cumbria",E12000002,North West,England
BD96RJ,Bradford and Airedale SU,-1.7948794,53.805882,E01010810,Bradford 037B,Bradford 037B,Bradford 037B,413481.0,434177.0,-1.79679,53.80373,E02002219,Bradford 037,E38000019,NHS Bradford Districts CCG,E54000054,NHS West Yorkshire Integrated Care Board,E08000032,Bradford,E54000005,West Yorkshire and Harrogate (Health and Care Partnership),,,,E55000005,Yorkshire and The Humber,E12000003,Yorkshire and The Humber,England
BL97TD,Fairfield General Hospital,-2.2553361,53.600505,E01004954,Bury 007A,Bury 007A,Bury 007A,383040.0,411765.0,-2.25776,53.60218,E02001025,Bury 007,E38000024,NHS Bury CCG,E54000057,NHS Greater Manchester Integrated Care Board,E08000002,Bury,E54000007,Greater Manchester Health and Social Care Partnership,,,,E55000003,"Greater Manchester, Lancashire and South Cumbria",E12000002,North West,England
BN112DH,Worthing Hospital,-0.36432126,50.816758,E01031789,Worthing 011C,Worthing 011C,Worthing 011C,515183.0,102722.0,-0.36642,50.81259,E02006631,Worthing 011,E38000213,NHS Coastal West Sussex CCG,E54000053,NHS Sussex Integrated Care Board,E07000229,Worthing,E54000033,Sussex and East Surrey,,,,E55000010,South East Coast,E12000008,South East,England
BN212UD,Eastbourne District General Hospital,0.27110748,50.786969,E01020948,Eastbourne 008A,Eastbourne 008A,Eastbourne 008A,559879.0,100543.0,0.266589,50.78242,E02004363,Eastbourne 008,E38000055,"NHS Eastbourne, Hailsham and Seaford CCG",E54000053,NHS Sussex Integrated Care Board,E07000061,Eastbourne,E54000033,Sussex and East Surrey,,,,E55000010,South East Coast,E12000008,South East,England
BN25BE,Royal Sussex County Hospital,-0.11817668,50.819468,E01016862,Brighton and Hove 031B,Brighton and Hove 031B,Brighton and Hove 031B,532606.0,104046.0,-0.11877,50.82077,E02003521,Brighton and Hove 031,E38000021,NHS Brighton and Hove CCG,E54000053,NHS Sussex Integrated Care Board,E06000043,Brighton and Hove,E54000033,Sussex and East Surrey,,,,E55000010,South East Coast,E12000008,South East,England
BR68ND,Princess Royal University Hospital HASU,0.059625435,51.365713,E01000751,Bromley 036C,Bromley 036C,Bromley 036C,543288.0,164244.0,0.056632,51.3592,E02000162,Bromley 036,E38000023,NHS Bromley CCG,E54000030,NHS South East London Integrated Care Board,E09000006,Bromley,E54000030,Our Healthier South East London,,,,E55000014,London,E12000007,London,England
BS105NB,North Bristol Hospitals,-2.5929485,51.497333,E01014631,Bristol 004A,Bristol 004A,Bristol 004A,359221.0,177988.0,-2.58885,51.49934,E02003015,Bristol 004,E38000222,"NHS Bristol, North Somerset and South Gloucestershire CCG",E54000039,"NHS Bristol, North Somerset and South Gloucestershire Integrated Care Board",E06000023,"Bristol, City of",E54000039,"Bristol, North Somerset and South Gloucestershire",,,,E55000009,South West,E12000009,South West,England
BS28HW,University Hospitals Bristol Inpatient Team,-2.596293,51.458886,E01014542,Bristol 032C,Bristol 032C,Bristol 032C,358503.0,173366.0,-2.59865,51.45773,E02003043,Bristol 032,E38000222,"NHS Bristol, North Somerset and South Gloucestershire CCG",E54000039,"NHS Bristol, North Somerset and South Gloucestershire Integrated Care Board",E06000023,"Bristol, City of",E54000039,"Bristol, North Somerset and South Gloucestershire",,,,E55000009,South West,E12000009,South West,England
BS234TQ,Weston General Hospital,-2.9713986,51.322335,E01014803,North Somerset 025A,North Somerset 025A,North Somerset 025A,331775.0,158219.0,-2.98038,51.31896,E02003089,North Somerset 025,E38000222,"NHS Bristol, North Somerset and South Gloucestershire CCG",E54000039,"NHS Bristol, North Somerset and South Gloucestershire Integrated Care Board",E06000024,North Somerset,E54000039,"Bristol, North Somerset and South Gloucestershire",,,,E55000009,South West,E12000009,South West,England
CA27HY,Cumberland Infirmary,-2.9552949,54.895745,E01019205,Carlisle 008A,Carlisle 008A,Carlisle 008A,338648.0,556032.0,-2.95812,54.89524,E02003994,Carlisle 008,E38000215,NHS North Cumbria CCG,E54000050,NHS North East and North Cumbria Integrated Care Board,E07000028,Carlisle,E54000049,Cumbria and North East,,,,E55000004,Northern England,E12000002,North West,England
CB20QQ,Addenbrooke's Hospital,0.13911444,52.173741,E01017995,Cambridge 013D,Cambridge 013D,Cambridge 013D,546958.0,254958.0,0.147649,52.17332,E02003731,Cambridge 013,E38000026,NHS Cambridgeshire and Peterborough CCG,E54000056,NHS Cambridgeshire and Peterborough Integrated Care Board,E07000008,Cambridge,E54000021,Cambridgeshire and Peterborough,,,,E55000006,East of England,E12000006,East of England,England
CF144XW,University Hospital of Wales,-3.1893604,51.506764,W01001770,Cardiff 018B,Caerdydd 018B,Caerdydd 018B,317843.0,179719.0,-3.18525,51.5104,W02000384,Cardiff 018,,,,,W06000015,Cardiff,,,W11000029,Cardiff and Vale University Health Board,Bwrdd Iechyd Prifysgol Caerdydd aâ€™r Fro,,,W92000004,Wales,Wales
CF311RQ,Princess Of Wales Hospital,-3.5716382,51.517676,W01001038,Bridgend 011C,Pen-y-bont ar Ogwr 011C,Pen-y-bont ar Ogwr 011C,291013.0,181014.0,-3.57213,51.5175,W02000228,Bridgend 011,,,,,W06000013,Bridgend,,,W11000030,Cwm Taf Morgannwg University Health Board,Bwrdd Iechyd Prifysgol Cwm Taf Morgannwg,,,W92000004,Wales,Wales
CF479DT,Prince Charles Hospital,-3.3855045,51.763954,W01001299,Merthyr Tydfil 008A,Merthyr Tudful 008A,Merthyr Tudful 008A,304777.0,208262.0,-3.38125,51.76491,W02000415,Merthyr Tydfil 008,,,,,W06000024,Merthyr Tydfil,,,W11000030,Cwm Taf Morgannwg University Health Board,Bwrdd Iechyd Prifysgol Cwm Taf Morgannwg,,,W92000004,Wales,Wales
CH21UL,Countess of Chester Hospital,-2.8990244,53.211767,E01018377,Cheshire West and Chester 028F,Cheshire West and Chester 028F,Cheshire West and Chester 028F,340312.0,369127.0,-2.8953,53.21584,E02003797,Cheshire West and Chester 028,E38000196,NHS West Cheshire CCG,E54000008,NHS Cheshire and Merseyside Integrated Care Board,E06000050,Cheshire West and Chester,E54000008,Cheshire and Merseyside,,,,E55000002,Cheshire and Merseyside,E12000002,North West,England
CH495PE,Wirral Arrowe Park Hospital,-3.0954486,53.370841,E01007251,Wirral 025B,Wirral 025B,Wirral 025B,327482.0,386577.0,-3.09139,53.37107,E02001491,Wirral 025,E38000208,NHS Wirral CCG,E54000008,NHS Cheshire and Merseyside Integrated Care Board,E08000015,Wirral,E54000008,Cheshire and Merseyside,,,,E55000002,Cheshire and Merseyside,E12000002,North West,England
CM17ET,Broomfield Hospital,0.46542433,51.774585,E01021542,Chelmsford 002A,Chelmsford 002A,Chelmsford 002A,569843.0,210761.0,0.460144,51.76976,E02004486,Chelmsford 002,E38000106,NHS Mid Essex CCG,E54000026,NHS Mid and South Essex Integrated Care Board,E07000070,Chelmsford,E54000026,Mid and South Essex,,,,E55000006,East of England,E12000006,East of England,England
CM201QX,Princess Alexandra Hospital,0.086303423,51.771343,E01021843,Harlow 004E,Harlow 004E,Harlow 004E,544333.0,210546.0,0.09063,51.77498,E02004547,Harlow 004,E38000197,NHS West Essex CCG,E54000025,NHS Hertfordshire and West Essex Integrated Care Board,E07000073,Harlow,E54000025,Hertfordshire and West Essex,,,,E55000006,East of England,E12000006,East of England,England
CO45JL,Colchester General Hospital,0.89936594,51.909629,E01021682,Colchester 004D,Colchester 004D,Colchester 004D,599811.0,228409.0,0.904104,51.91835,E02004509,Colchester 004,E38000117,NHS North East Essex CCG,E54000023,NHS Suffolk and North East Essex Integrated Care Board,E07000071,Colchester,E54000023,Suffolk and North East Essex,,,,E55000006,East of England,E12000006,East of England,England
CT13NG,Invicta Ward Kent and Canterbury Hospital ,1.0870832,51.266589,E01024046,Canterbury 016C,Canterbury 016C,Canterbury 016C,615837.0,156202.0,1.092408,51.26409,E02005025,Canterbury 016,E38000029,NHS Canterbury and Coastal CCG,E54000032,NHS Kent and Medway Integrated Care Board,E07000106,Canterbury,E54000032,Kent and Medway,,,,E55000010,South East Coast,E12000008,South East,England
CT94AN,Queen Elizabeth the Queen Mother Hospital,1.3893845,51.378053,E01024694,Thanet 004D,Thanet 004D,Thanet 004D,636387.0,169472.0,1.395226,51.37506,E02005135,Thanet 004,E38000184,NHS Thanet CCG,E54000032,NHS Kent and Medway Integrated Care Board,E07000114,Thanet,E54000032,Kent and Medway,,,,E55000010,South East Coast,E12000008,South East,England
CV22DX,University Hospital Coventry,-1.4435031,52.421424,E01009580,Coventry 019A,Coventry 019A,Coventry 019A,438494.0,280492.0,-1.43538,52.42108,E02001976,Coventry 019,E38000038,NHS Coventry and Rugby CCG,E54000018,NHS Coventry and Warwickshire Integrated Care Board,E08000026,Coventry,E54000018,Coventry and Warwickshire,,,,E55000008,West Midlands,E12000005,West Midlands,England
CV345BW,Warwick Hospital,-1.5832152,52.28995,E01031323,Warwick 011C,Warwick 011C,Warwick 011C,428366.0,265525.0,-1.58556,52.28715,E02006529,Warwick 011,E38000164,NHS South Warwickshire CCG,E54000018,NHS Coventry and Warwickshire Integrated Care Board,E07000222,Warwick,E54000018,Coventry and Warwickshire,,,,E55000008,West Midlands,E12000005,West Midlands,England
CW14QJ,Leighton Hospital,-2.4758631,53.117685,E01018480,Cheshire East 049B,Cheshire East 049B,Cheshire East 049B,365492.0,358211.0,-2.51706,53.11996,E02003837,Cheshire East 049,E38000151,NHS South Cheshire CCG,E54000008,NHS Cheshire and Merseyside Integrated Care Board,E06000049,Cheshire East,E54000008,Cheshire and Merseyside,,,,E55000002,Cheshire and Merseyside,E12000002,North West,England
DA28DA,Darent Valley Hospital,0.25816101,51.435061,E01024133,Dartford 008A,Dartford 008A,Dartford 008A,557153.0,172396.0,0.259218,51.42878,E02005035,Dartford 008,E38000043,"NHS Dartford, Gravesham and Swanley CCG",E54000032,NHS Kent and Medway Integrated Care Board,E07000107,Dartford,E54000032,Kent and Medway,,,,E55000010,South East Coast,E12000008,South East,England
DE223NE,Royal Derby Hospital,-1.5133206,52.911556,E01013542,Derby 017C,Derby 017C,Derby 017C,432926.0,335342.0,-1.51179,52.91451,E02002812,Derby 017,E38000229,NHS Derby and Derbyshire CCG,E54000058,NHS Derby and Derbyshire Integrated Care Board,E06000015,Derby,E54000012,Joined Up Care Derbyshire,,,,E55000007,East Midlands,E12000004,East Midlands,England
DH15TW,University Hospital of North Durham,-1.5929282,54.788899,E01020702,County Durham 033B,County Durham 033B,County Durham 033B,426893.0,543426.0,-1.58336,54.78502,E02004315,County Durham 033,E38000116,NHS North Durham CCG,E54000050,NHS North East and North Cumbria Integrated Care Board,E06000047,County Durham,E54000049,Cumbria and North East,,,,E55000004,Northern England,E12000001,North East,England
DN157BH,Scunthorpe General Hospital,-0.66693886,53.58744,E01013333,North Lincolnshire 009C,North Lincolnshire 009C,North Lincolnshire 009C,488461.0,410958.0,-0.66512,53.58777,E02002757,North Lincolnshire 009,E38000122,NHS North Lincolnshire CCG,E54000051,NHS Humber and North Yorkshire Integrated Care Board,E06000013,North Lincolnshire,E54000006,"Humber, Coast and Vale",,,,E55000005,Yorkshire and The Humber,E12000003,Yorkshire and The Humber,England
DN25LT,Doncaster Royal Infirmary,-1.1092567,53.530742,E01007567,Doncaster 018D,Doncaster 018D,Doncaster 018D,459229.0,403882.0,-1.10798,53.52829,E02001556,Doncaster 018,E38000044,NHS Doncaster CCG,E54000061,NHS South Yorkshire Integrated Care Board,E08000017,Doncaster,E54000009,South Yorkshire and Bassetlaw,,,,E55000005,Yorkshire and The Humber,E12000003,Yorkshire and The Humber,England
DT12JY,Dorset County Hospital,-2.4471253,50.713461,E01032643,West Dorset 009G,West Dorset 009G,West Dorset 009G,368543.0,90831.0,-2.44693,50.71624,E02004277,West Dorset 009,E38000045,NHS Dorset CCG,E54000041,NHS Dorset Integrated Care Board,E07000052,West Dorset,E54000041,Dorset,,,,E55000012,Wessex,E12000009,South West,England
DY12HQ,Russells Hall Hospital,-2.1177498,52.502306,E01009884,Dudley 013D,Dudley 013D,Dudley 013D,392282.0,289465.0,-2.11512,52.50304,E02002012,Dudley 013,E38000046,NHS Dudley CCG,E54000062,NHS Black Country Integrated Care Board,E08000027,Dudley,E54000016,The Black Country and West Birmingham,,,,E55000008,West Midlands,E12000005,West Midlands,England
BH77DW,University Hospitals Dorset Stroke Service,-1.8205054,50.747482,E01015319,Bournemouth 011D,Bournemouth 011D,Bournemouth 011D,412572.0,94011.0,-1.82317,50.74556,E02003182,Bournemouth 011,E38000045,NHS Dorset CCG,E54000041,NHS Dorset Integrated Care Board,E06000028,Bournemouth,E54000041,Dorset,,,,E55000012,Wessex,E12000009,South West,England
E11BB,Royal London Hospital HASU,-0.058075032,51.519026,E01004322,Tower Hamlets 017A,Tower Hamlets 017A,Tower Hamlets 017A,534863.0,181755.0,-0.05763,51.51862,E02000880,Tower Hamlets 017,E38000186,NHS Tower Hamlets CCG,E54000029,NHS North East London Integrated Care Board,E09000030,Tower Hamlets,E54000029,East London Health and Care Partnership,,,,E55000014,London,E12000007,London,England
EX25DW,Royal Devon and Exeter Hospital,-3.5066801,50.716712,E01020013,Exeter 013C,Exeter 013C,Exeter 013C,293887.0,91792.0,-3.50444,50.71602,E02004161,Exeter 013,E38000230,NHS Devon CCG,E54000037,NHS Devon Integrated Care Board,E07000041,Exeter,E54000037,Devon,,,,E55000009,South West,E12000009,South West,England
EX314JB,North Devon District Hospital,-4.0511326,51.092201,E01020134,North Devon 007C,North Devon 007C,North Devon 007C,256717.0,134252.0,-4.04732,51.08963,E02004181,North Devon 007,E38000230,NHS Devon CCG,E54000037,NHS Devon Integrated Care Board,E07000043,North Devon,E54000037,Devon,,,,E55000009,South West,E12000009,South West,England
FY38NR,Blackpool Victoria Hospital,-3.0162645,53.820669,E01012722,Blackpool 009F,Blackpool 009F,Blackpool 009F,333601.0,436767.0,-3.01014,53.82292,E02002641,Blackpool 009,E38000015,NHS Blackpool CCG,E54000048,NHS Lancashire and South Cumbria Integrated Care Board,E06000009,Blackpool,E54000048,Healthier Lancashire and South Cumbria,,,,E55000003,"Greater Manchester, Lancashire and South Cumbria",E12000002,North West,England
GL13NN,Gloucestershire Royal Hospital,-2.2338867,51.866088,E01022311,Gloucester 002C,Gloucester 002C,Gloucester 002C,383945.0,218836.0,-2.23457,51.86787,E02004637,Gloucester 002,E38000062,NHS Gloucestershire CCG,E54000043,NHS Gloucestershire Integrated Care Board,E07000081,Gloucester,E54000043,Gloucestershire,,,,E55000009,South West,E12000009,South West,England
GU167UJ,Frimley Park Hospital,-0.74155505,51.31967,E01030768,Surrey Heath 010C,Surrey Heath 010C,Surrey Heath 010C,488092.0,158378.0,-0.73731,51.3177,E02006425,Surrey Heath 010,E38000178,NHS Surrey Heath CCG,E54000034,NHS Frimley Integrated Care Board,E07000214,Surrey Heath,E54000034,Frimley Health,,,,E55000010,South East Coast,E12000008,South East,England
HA13UJ,Northwick Park Hospital HASU,-0.32248145,51.575098,E01000568,Brent 008D,Brent 008D,Brent 008D,516615.0,187769.0,-0.31851,51.57673,E02000100,Brent 008,E38000020,NHS Brent CCG,E54000027,NHS North West London Integrated Care Board,E09000005,Brent,E54000027,North West London Health and Care Partnership,,,,E55000014,London,E12000007,London,England
HP112TT,Wycombe General Hospital,-0.75341914,51.626235,E01017837,Wycombe 015B,Wycombe 015B,Wycombe 015B,486153.0,192993.0,-0.7567,51.62916,E02003710,Wycombe 015,E38000223,NHS Buckinghamshire CCG,E54000044,"NHS Buckinghamshire, Oxfordshire and Berkshire West Integrated Care Board",E07000007,Wycombe,E54000044,"Buckinghamshire, Oxfordshire and Berkshire West",,,,E55000011,Thames Valley,E12000008,South East,England
HR12ER,Hereford County Hospital,-2.7055327,52.056942,E01014011,Herefordshire 012D,Herefordshire 012D,Herefordshire 012D,351564.0,239930.0,-2.70781,52.05563,E02002916,Herefordshire 012,E38000078,NHS Herefordshire CCG,E54000019,NHS Herefordshire and Worcestershire Integrated Care Board,E06000019,"Herefordshire, County of",E54000019,Herefordshire and Worcestershire,,,,E55000008,West Midlands,E12000005,West Midlands,England
HU32JZ,Hull Royal Infirmary,-0.35827125,53.744412,E01012855,Kingston upon Hull 029D,Kingston upon Hull 029D,Kingston upon Hull 029D,508599.0,428290.0,-0.35497,53.73971,E02002680,Kingston upon Hull 029,E38000085,NHS Hull CCG,E54000051,NHS Humber and North Yorkshire Integrated Care Board,E06000010,"Kingston upon Hull, City of",E54000006,"Humber, Coast and Vale",,,,E55000005,Yorkshire and The Humber,E12000003,Yorkshire and The Humber,England
HX30PW,Calderdale Royal Hospital,-1.8572797,53.705306,E01010972,Calderdale 021C,Calderdale 021C,Calderdale 021C,409279.0,423411.0,-1.86091,53.70706,E02002264,Calderdale 021,E38000025,NHS Calderdale CCG,E54000054,NHS West Yorkshire Integrated Care Board,E08000033,Calderdale,E54000005,West Yorkshire and Harrogate (Health and Care Partnership),,,,E55000005,Yorkshire and The Humber,E12000003,Yorkshire and The Humber,England
IP332QZ,West Suffolk Hospital,0.70917557,52.231662,E01030142,St Edmundsbury 009B,St Edmundsbury 009B,St Edmundsbury 009B,585225.0,262644.0,0.710839,52.23085,E02006281,St Edmundsbury 009,E38000204,NHS West Suffolk CCG,E54000023,NHS Suffolk and North East Essex Integrated Care Board,E07000204,St Edmundsbury,E54000023,Suffolk and North East Essex,,,,E55000006,East of England,E12000006,East of England,England
IP45PD,Ipswich Hospital,1.1963461,52.060012,E01029964,Ipswich 009B,Ipswich 009B,Ipswich 009B,618849.0,245114.0,1.191147,52.06116,E02006253,Ipswich 009,E38000086,NHS Ipswich and East Suffolk CCG,E54000023,NHS Suffolk and North East Essex Integrated Care Board,E07000202,Ipswich,E54000023,Suffolk and North East Essex,,,,E55000006,East of England,E12000006,East of England,England
KT160PZ,St Peter's Hospital,-0.52683986,51.377091,E01030677,Runnymede 008A,Runnymede 008A,Runnymede 008A,500996.0,166243.0,-0.54998,51.38625,E02006400,Runnymede 008,E38000128,NHS North West Surrey CCG,E54000052,NHS Surrey Heartlands Integrated Care Board,E07000212,Runnymede,E54000035,Surrey Heartlands,,,,E55000010,South East Coast,E12000008,South East,England
KT187EG,Epsom Hospital,-0.27340744,51.325026,E01030419,Epsom and Ewell 008D,Epsom and Ewell 008D,Epsom and Ewell 008D,520545.0,160079.0,-0.27125,51.32704,E02006342,Epsom and Ewell 008,E38000177,NHS Surrey Downs CCG,E54000052,NHS Surrey Heartlands Integrated Care Board,E07000208,Epsom and Ewell,E54000035,Surrey Heartlands,,,,E55000010,South East Coast,E12000008,South East,England
L355DR,Whiston Hospital HASU,-2.7860133,53.420813,E01006499,Knowsley 009E,Knowsley 009E,Knowsley 009E,347966.0,391917.0,-2.78444,53.42148,E02001335,Knowsley 009,E38000091,NHS Knowsley CCG,E54000008,NHS Cheshire and Merseyside Integrated Care Board,E08000011,Knowsley,E54000008,Cheshire and Merseyside,,,,E55000002,Cheshire and Merseyside,E12000002,North West,England
L78XP,Royal Liverpool University Hospital,-2.9648088,53.409506,E01006747,Liverpool 031B,Liverpool 031B,Liverpool 031B,335857.0,390695.0,-2.96638,53.40916,E02001377,Liverpool 031,E38000101,NHS Liverpool CCG,E54000008,NHS Cheshire and Merseyside Integrated Care Board,E08000012,Liverpool,E54000008,Cheshire and Merseyside,,,,E55000002,Cheshire and Merseyside,E12000002,North West,England
L97AL,University Hospital Aintree,-2.9351308,53.467918,E01006654,Liverpool 005A,Liverpool 005A,Liverpool 005A,337789.0,396962.0,-2.93856,53.46572,E02001351,Liverpool 005,E38000101,NHS Liverpool CCG,E54000008,NHS Cheshire and Merseyside Integrated Care Board,E08000012,Liverpool,E54000008,Cheshire and Merseyside,,,,E55000002,Cheshire and Merseyside,E12000002,North West,England
LA144LF,Furness General Hospital,-3.2078839,54.136395,E01019155,Barrow-in-Furness 003D,Barrow-in-Furness 003D,Barrow-in-Furness 003D,321032.0,471896.0,-3.21015,54.13682,E02003979,Barrow-in-Furness 003,E38000228,NHS Morecambe Bay CCG,E54000048,NHS Lancashire and South Cumbria Integrated Care Board,E07000027,Barrow-in-Furness,E54000048,Healthier Lancashire and South Cumbria,,,,E55000003,"Greater Manchester, Lancashire and South Cumbria",E12000002,North West,England
LA14RP,Royal Lancaster Infirmary,-2.7990215,54.042889,E01033073,Lancaster 014F,Lancaster 014F,Lancaster 014F,347491.0,461091.0,-2.80335,54.04311,E02005234,Lancaster 014,E38000228,NHS Morecambe Bay CCG,E54000048,NHS Lancashire and South Cumbria Integrated Care Board,E07000121,Lancaster,E54000048,Healthier Lancashire and South Cumbria,,,,E55000003,"Greater Manchester, Lancashire and South Cumbria",E12000002,North West,England
LE15WW,Leicester Royal Infirmary,-1.1348028,52.627817,E01013647,Leicester 040B,Leicester 040B,Leicester 040B,458726.0,303656.0,-1.13382,52.62751,E02006850,Leicester 040,E38000097,NHS Leicester City CCG,E54000015,"NHS Leicester, Leicestershire and Rutland Integrated Care Board",E06000016,Leicester,E54000015,"Leicester, Leicestershire and Rutland",,,,E55000007,East Midlands,E12000004,East Midlands,England
LL137TD,Maelor Hospital,-3.0101802,53.046173,W01000349,Wrexham 011A,Wrecsam 011A,Wrecsam 011A,331816.0,350271.0,-3.01849,53.04535,W02000088,Wrexham 011,,,,,W06000006,Wrexham,,,W11000023,Betsi Cadwaladr University Health Board,Bwrdd Iechyd Prifysgol Betsi Cadwaladr,,,W92000004,Wales,Wales
LL185UJ,Glan Clwyd District General Hospital,-3.4963452,53.271755,W01000191,Denbighshire 009A,Sir Ddinbych 009A,Sir Ddinbych 009A,300655.0,376547.0,-3.49132,53.27658,W02000050,Denbighshire 009,,,,,W06000004,Denbighshire,,,W11000023,Betsi Cadwaladr University Health Board,Bwrdd Iechyd Prifysgol Betsi Cadwaladr,,,W92000004,Wales,Wales
LL572PW,Ysbyty Gwynedd,-4.1598251,53.20902,W01000102,Gwynedd 002E,Gwynedd 002E,Gwynedd 002E,256044.0,369033.0,-4.15651,53.19884,W02000011,Gwynedd 002,,,,,W06000002,Gwynedd,,,W11000023,Betsi Cadwaladr University Health Board,Bwrdd Iechyd Prifysgol Betsi Cadwaladr,,,W92000004,Wales,Wales
LN25QY,Lincoln County Hospital,-0.51814791,53.232388,E01026125,Lincoln 003A,Lincoln 003A,Lincoln 003A,498961.0,371946.0,-0.51878,53.23535,E02005444,Lincoln 003,E38000100,NHS Lincolnshire West CCG,E54000013,NHS Lincolnshire Integrated Care Board,E07000138,Lincoln,E54000013,Lincolnshire,,,,E55000007,East Midlands,E12000004,East Midlands,England
LS13EX,Leeds General Infirmary,-1.5517436,53.801445,E01033008,Leeds 111A,Leeds 111A,Leeds 111A,429481.0,433789.0,-1.55389,53.79959,E02006875,Leeds 111,E38000225,NHS Leeds CCG,E54000054,NHS West Yorkshire Integrated Care Board,E08000035,Leeds,E54000005,West Yorkshire and Harrogate (Health and Care Partnership),,,,E55000005,Yorkshire and The Humber,E12000003,Yorkshire and The Humber,England
LU40DZ,Luton and Dunstable Hospital,-0.47426894,51.894177,E01015713,Luton 013A,Luton 013A,Luton 013A,505370.0,222820.0,-0.47012,51.89398,E02003270,Luton 013,E38000102,NHS Luton CCG,E54000024,"NHS Bedfordshire, Luton and Milton Keynes Integrated Care Board",E06000032,Luton,E54000024,"Bedfordshire, Luton and Milton Keynes",,,,E55000006,East of England,E12000006,East of England,England
M68HD,Salford Royal Hospital,-2.3226835,53.487232,E01005719,Salford 021C,Salford 021C,Salford 021C,378479.0,398746.0,-2.32578,53.485,E02001177,Salford 021,E38000143,NHS Salford CCG,E54000057,NHS Greater Manchester Integrated Care Board,E08000006,Salford,E54000007,Greater Manchester Health and Social Care Partnership,,,,E55000003,"Greater Manchester, Lancashire and South Cumbria",E12000002,North West,England
ME169QQ,Maidstone District General Hospital,0.48397392,51.273662,E01033088,Maidstone 008F,Maidstone 008F,Maidstone 008F,573422.0,155655.0,0.484864,51.27365,E02005075,Maidstone 008,E38000199,NHS West Kent CCG,E54000032,NHS Kent and Medway Integrated Care Board,E07000110,Maidstone,E54000032,Kent and Medway,,,,E55000010,South East Coast,E12000008,South East,England
ME75NY,Medway Maritime Hospital,0.54221759,51.378267,E01016048,Medway 016D,Medway 016D,Medway 016D,577062.0,167372.0,0.542809,51.37778,E02003329,Medway 016,E38000104,NHS Medway CCG,E54000032,NHS Kent and Medway Integrated Care Board,E06000035,Medway,E54000032,Kent and Medway,,,,E55000010,South East Coast,E12000008,South East,England
MK65LD,Milton Keynes General Hospital,-0.73579539,52.026383,E01016845,Milton Keynes 018C,Milton Keynes 018C,Milton Keynes 018C,487033.0,237015.0,-0.73293,52.02474,E02003476,Milton Keynes 018,E38000107,NHS Milton Keynes CCG,E54000024,"NHS Bedfordshire, Luton and Milton Keynes Integrated Care Board",E06000042,Milton Keynes,E54000024,"Bedfordshire, Luton and Milton Keynes",,,,E55000007,East Midlands,E12000008,South East,England
NE14LP,Royal Victoria Infirmary,-1.6181094,54.979753,E01008395,Newcastle upon Tyne 024B,Newcastle upon Tyne 024B,Newcastle upon Tyne 024B,423845.0,566233.0,-1.62888,54.99012,E02001731,Newcastle upon Tyne 024,E38000212,NHS Newcastle Gateshead CCG,E54000050,NHS North East and North Cumbria Integrated Care Board,E08000021,Newcastle upon Tyne,E54000049,Cumbria and North East,,,,E55000004,Northern England,E12000001,North East,England
NE236NZ,Northumbria Specialist Emergency Care Hospital HASU,-1.5694923,55.074089,E01027394,Northumberland 031A,Northumberland 031A,Northumberland 031A,427385.0,575773.0,-1.57265,55.07567,E02005718,Northumberland 031,E38000130,NHS Northumberland CCG,E54000050,NHS North East and North Cumbria Integrated Care Board,E06000057,Northumberland,E54000049,Cumbria and North East,,,,E55000004,Northern England,E12000001,North East,England
NG174JL,Kings Mill Hospital,-1.2380927,53.134692,E01027985,Ashfield 004E,Ashfield 004E,Ashfield 004E,450986.0,360034.0,-1.23935,53.13505,E02005822,Ashfield 004,E38000103,NHS Mansfield and Ashfield CCG,E54000060,NHS Nottingham and Nottinghamshire Integrated Care Board,E07000170,Ashfield,E54000014,Nottingham and Nottinghamshire Health and Care,,,,E55000007,East Midlands,E12000004,East Midlands,England
NG72UH,Queen's Medical Centre - Nottingham,-1.1857996,52.943439,E01033410,Nottingham 031I,Nottingham 031I,Nottingham 031I,454638.0,337782.0,-1.18853,52.93468,E02002898,Nottingham 031,E38000132,NHS Nottingham City CCG,E54000060,NHS Nottingham and Nottinghamshire Integrated Care Board,E06000018,Nottingham,E54000014,Nottingham and Nottinghamshire Health and Care,,,,E55000007,East Midlands,E12000004,East Midlands,England
NN15BD,Northampton General Hospital,-0.88668728,52.237132,E01027223,Northampton 025A,Northampton 025A,Northampton 025A,475839.0,260371.0,-0.89085,52.23633,E02005674,Northampton 025,E38000108,NHS Nene CCG,E54000059,NHS Northamptonshire Integrated Care Board,E07000154,Northampton,E54000020,Northamptonshire,,,,E55000007,East Midlands,E12000004,East Midlands,England
NP448YN,Grange University Hospital,-2.9963314,51.646288,W01001508,Torfaen 013C,Tor-faen 013C,Tor-faen 013C,330783.0,194302.0,-3.0017,51.64324,W02000335,Torfaen 013,,,,,W06000020,Torfaen,,,W11000028,Aneurin Bevan University Health Board,Bwrdd Iechyd Prifysgol Aneurin Bevan,,,W92000004,Wales,Wales
NR316LA,James Paget Hospital,1.7179799,52.561672,E01026617,Great Yarmouth 011A,Great Yarmouth 011A,Great Yarmouth 011A,651858.0,302692.0,1.714707,52.56373,E02005548,Great Yarmouth 011,E38000063,NHS Great Yarmouth and Waveney CCG,E54000022,NHS Norfolk and Waveney Integrated Care Board,E07000145,Great Yarmouth,E54000022,Norfolk and Waveney Health and Care Partnership,,,,E55000006,East of England,E12000006,East of England,England
NR47UY,Norfolk and Norwich University Hospital,1.2210668,52.618086,E01026883,South Norfolk 002C,South Norfolk 002C,South Norfolk 002C,616500.0,308371.0,1.197671,52.62991,E02005598,South Norfolk 002,E38000219,NHS South Norfolk CCG,E54000022,NHS Norfolk and Waveney Integrated Care Board,E07000149,South Norfolk,E54000022,Norfolk and Waveney Health and Care Partnership,,,,E55000006,East of England,E12000006,East of England,England
NW12BU,University College Hospital HASU,-0.13701251,51.524865,E01000854,Camden 026D,Camden 026D,Camden 026D,529410.0,182122.0,-0.13604,51.52319,E02000191,Camden 026,E38000027,NHS Camden CCG,E54000028,NHS North Central London Integrated Care Board,E09000007,Camden,E54000028,North London Partners in Health and Care,,,,E55000014,London,E12000007,London,England
OX39DU,John Radcliffe Hospital,-1.2198064,51.763871,E01028534,Oxford 006A,Oxford 006A,Oxford 006A,453819.0,207382.0,-1.22156,51.76254,E02005945,Oxford 006,E38000136,NHS Oxfordshire CCG,E54000044,"NHS Buckinghamshire, Oxfordshire and Berkshire West Integrated Care Board",E07000178,Oxford,E54000044,"Buckinghamshire, Oxfordshire and Berkshire West",,,,E55000011,Thames Valley,E12000008,South East,England
PE304ET,Queen Elizabeth Hospital Kings Lynn,0.44699931,52.756781,E01026714,King's Lynn and West Norfolk 010D,King's Lynn and West Norfolk 010D,King's Lynn and West Norfolk 010D,564817.0,320878.0,0.441109,52.76038,E02005560,King's Lynn and West Norfolk 010,E38000203,NHS West Norfolk CCG,E54000022,NHS Norfolk and Waveney Integrated Care Board,E07000146,King's Lynn and West Norfolk,E54000022,Norfolk and Waveney Health and Care Partnership,,,,E55000006,East of England,E12000006,East of England,England
PE39GZ,Peterborough City Hospital,-0.28009333,52.585451,E01015691,Peterborough 015E,Peterborough 015E,Peterborough 015E,516923.0,299722.0,-0.27574,52.58276,E02003251,Peterborough 015,E38000026,NHS Cambridgeshire and Peterborough CCG,E54000056,NHS Cambridgeshire and Peterborough Integrated Care Board,E06000031,Peterborough,E54000021,Cambridgeshire and Peterborough,,,,E55000006,East of England,E12000006,East of England,England
PL68DH,Derriford Hospital,-4.1136845,50.41672,E01015092,Plymouth 005C,Plymouth 005C,Plymouth 005C,249807.0,59251.0,-4.11531,50.41386,E02003126,Plymouth 005,E38000230,NHS Devon CCG,E54000037,NHS Devon Integrated Care Board,E06000026,Plymouth,E54000037,Devon,,,,E55000009,South West,E12000009,South West,England
PO196SE,St Richards Hospital,-0.7680267,50.843562,E01031483,Chichester 008B,Chichester 008B,Chichester 008B,487247.0,105669.0,-0.76214,50.84396,E02006568,Chichester 008,E38000213,NHS Coastal West Sussex CCG,E54000053,NHS Sussex Integrated Care Board,E07000225,Chichester,E54000033,Sussex and East Surrey,,,,E55000010,South East Coast,E12000008,South East,England
PO305TG,St Mary's Hospital Newport,-1.3008871,50.711101,E01017334,Isle of Wight 008E,Isle of Wight 008E,Isle of Wight 008E,449164.0,91549.0,-1.30488,50.72148,E02003588,Isle of Wight 008,E38000087,NHS Isle of Wight CCG,E54000042,NHS Hampshire and Isle of Wight Integrated Care Board,E06000046,Isle of Wight,E54000042,Hampshire and the Isle of Wight,,,,E55000012,Wessex,E12000008,South East,England
PO63LY,Queen Alexandra Hospital Portsmouth,-1.0713238,50.849589,E01017051,Portsmouth 002A,Portsmouth 002A,Portsmouth 002A,465509.0,106003.0,-1.07079,50.84983,E02003525,Portsmouth 002,E38000137,NHS Portsmouth CCG,E54000042,NHS Hampshire and Isle of Wight Integrated Care Board,E06000044,Portsmouth,E54000042,Hampshire and the Isle of Wight,,,,E55000012,Wessex,E12000008,South East,England
PR29HT,Royal Preston Hospital,-2.7074034,53.79135,E01025300,Preston 004D,Preston 004D,Preston 004D,354151.0,432764.0,-2.6974,53.78917,E02005256,Preston 004,E38000227,NHS Greater Preston CCG,E54000048,NHS Lancashire and South Cumbria Integrated Care Board,E07000123,Preston,E54000048,Healthier Lancashire and South Cumbria,,,,E55000003,"Greater Manchester, Lancashire and South Cumbria",E12000002,North West,England
RG15AN,Royal Berkshire Hospital,-0.95864504,51.451402,E01016414,Reading 014F,Reading 014F,Reading 014F,472527.0,172884.0,-0.95765,51.4503,E02003402,Reading 014,E38000221,NHS Berkshire West CCG,E54000044,"NHS Buckinghamshire, Oxfordshire and Berkshire West Integrated Care Board",E06000038,Reading,E54000044,"Buckinghamshire, Oxfordshire and Berkshire West",,,,E55000011,Thames Valley,E12000008,South East,England
RH15RH,East Surrey Hospital,-0.16128808,51.218607,E01030572,Reigate and Banstead 014C,Reigate and Banstead 014C,Reigate and Banstead 014C,528479.0,148370.0,-0.16164,51.22007,E02006388,Reigate and Banstead 014,E38000054,NHS East Surrey CCG,E54000052,NHS Surrey Heartlands Integrated Care Board,E07000211,Reigate and Banstead,E54000033,Sussex and East Surrey,,,,E55000010,South East Coast,E12000008,South East,England
RH164EX,Princess Royal Hospital Haywards Heath,-0.091075995,50.991198,E01031756,Mid Sussex 011E,Mid Sussex 011E,Mid Sussex 011E,534048.0,122732.0,-0.09146,50.98838,E02006614,Mid Sussex 011,E38000083,NHS Horsham and Mid Sussex CCG,E54000053,NHS Sussex Integrated Care Board,E07000228,Mid Sussex,E54000033,Sussex and East Surrey,,,,E55000010,South East Coast,E12000008,South East,England
RM70AG,Queens Hospital Romford HASU,0.17891397,51.568622,E01002248,Havering 017C,Havering 017C,Havering 017C,550391.0,187661.0,0.168526,51.56777,E02000480,Havering 017,E38000077,NHS Havering CCG,E54000029,NHS North East London Integrated Care Board,E09000016,Havering,E54000029,East London Health and Care Partnership,,,,E55000014,London,E12000007,London,England
S102JF,Royal Hallamshire Hospital,-1.4934651,53.378472,E01007866,Sheffield 030A,Sheffield 030A,Sheffield 030A,433881.0,387213.0,-1.49213,53.3807,E02001640,Sheffield 030,E38000146,NHS Sheffield CCG,E54000061,NHS South Yorkshire Integrated Care Board,E08000019,Sheffield,E54000009,South Yorkshire and Bassetlaw,,,,E55000005,Yorkshire and The Humber,E12000003,Yorkshire and The Humber,England
S445BL,Chesterfield Royal,-1.4000812,53.236223,E01019585,Chesterfield 012G,Chesterfield 012G,Chesterfield 012G,439664.0,371022.0,-1.40721,53.23477,E02004066,Chesterfield 012,E38000229,NHS Derby and Derbyshire CCG,E54000058,NHS Derby and Derbyshire Integrated Care Board,E07000034,Chesterfield,E54000012,Joined Up Care Derbyshire,,,,E55000007,East Midlands,E12000004,East Midlands,England
SA148QF,Prince Philip Hospital,-4.1359742,51.691612,W01000652,Carmarthenshire 020B,Sir Gaerfyrddin 020B,Sir Gaerfyrddin 020B,252192.0,201433.0,-4.13988,51.69214,W02000161,Carmarthenshire 020,,,,,W06000010,Carmarthenshire,,,W11000025,Hywel Dda University Health Board,Bwrdd Iechyd Prifysgol Hywel Dda,,,W92000004,Wales,Wales
SA312AF,West Wales General,-4.2847226,51.867524,W01000640,Carmarthenshire 007D,Sir Gaerfyrddin 007D,Sir Gaerfyrddin 007D,242294.0,221982.0,-4.29231,51.87405,W02000148,Carmarthenshire 007,,,,,W06000010,Carmarthenshire,,,W11000025,Hywel Dda University Health Board,Bwrdd Iechyd Prifysgol Hywel Dda,,,W92000004,Wales,Wales
SA612PZ,Withybush General Hospital,-4.9650724,51.812716,W01000572,Pembrokeshire 005D,Sir Benfro 005D,Sir Benfro 005D,195982.0,216488.0,-4.96096,51.80971,W02000130,Pembrokeshire 005,,,,,W06000009,Pembrokeshire,,,W11000025,Hywel Dda University Health Board,Bwrdd Iechyd Prifysgol Hywel Dda,,,W92000004,Wales,Wales
SA66NL,Morriston Hospital,-3.9352525,51.684652,W01000816,Swansea 003F,Abertawe 003F,Abertawe 003F,266467.0,200202.0,-3.93301,51.68465,W02000170,Swansea 003,,,,,W06000011,Swansea,,,W11000031,Swansea Bay University Health Board,Bwrdd Iechyd Prifysgol Bae Abertawe,,,W92000004,Wales,Wales
SE59RW,King's College Hospital HASU,-0.093251533,51.469505,E01003076,Lambeth 014C,Lambeth 014C,Lambeth 014C,532410.0,175922.0,-0.09515,51.46678,E02000631,Lambeth 014,E38000092,NHS Lambeth CCG,E54000030,NHS South East London Integrated Care Board,E09000022,Lambeth,E54000030,Our Healthier South East London,,,,E55000014,London,E12000007,London,England
SG14AB,Lister Hospital,-0.21272607,51.924611,E01023800,Stevenage 002E,Stevenage 002E,Stevenage 002E,522920.0,226512.0,-0.21389,51.92357,E02004945,Stevenage 002,E38000049,NHS East and North Hertfordshire CCG,E54000025,NHS Hertfordshire and West Essex Integrated Care Board,E07000243,Stevenage,E54000025,Hertfordshire and West Essex,,,,E55000006,East of England,E12000006,East of England,England
SK27JE,Stepping Hill Hospital,-2.1320199,53.383787,E01005801,Stockport 027B,Stockport 027B,Stockport 027B,391034.0,387415.0,-2.13625,53.38352,E02001213,Stockport 027,E38000174,NHS Stockport CCG,E54000057,NHS Greater Manchester Integrated Care Board,E08000007,Stockport,E54000007,Greater Manchester Health and Social Care Partnership,,,,E55000003,"Greater Manchester, Lancashire and South Cumbria",E12000002,North West,England
SN36BB,Great Western Hospital Swindon,-1.7276925,51.538161,E01015583,Swindon 025A,Swindon 025A,Swindon 025A,417001.0,179047.0,-1.7564,51.51009,E02003236,Swindon 025,E38000181,NHS Swindon CCG,E54000040,"NHS Bath and North East Somerset, Swindon and Wiltshire Integrated Care Board",E06000030,Swindon,E54000040,"Bath and North East Somerset, Swindon and Wiltshire",,,,E55000009,South West,E12000009,South West,England
SO166YD,Southampton General Hospital,-1.435104,50.933019,E01017251,Southampton 010C,Southampton 010C,Southampton 010C,439606.0,114748.0,-1.43778,50.93082,E02003558,Southampton 010,E38000167,NHS Southampton CCG,E54000042,NHS Hampshire and Isle of Wight Integrated Care Board,E06000045,Southampton,E54000042,Hampshire and the Isle of Wight,,,,E55000012,Wessex,E12000008,South East,England
SO225DG,Royal Hampshire County Hospital,-1.3309587,51.061375,E01023263,Winchester 007C,Winchester 007C,Winchester 007C,446834.0,129125.0,-1.33308,51.05955,E02004835,Winchester 007,E38000198,NHS West Hampshire CCG,E54000042,NHS Hampshire and Isle of Wight Integrated Care Board,E07000094,Winchester,E54000042,Hampshire and the Isle of Wight,,,,E55000012,Wessex,E12000008,South East,England
SP28BJ,Salisbury District Hospital,-1.7898225,51.043955,E01032000,Wiltshire 057A,Wiltshire 057A,Wiltshire 057A,413522.0,125592.0,-1.80854,51.02953,E02006672,Wiltshire 057,E38000206,NHS Wiltshire CCG,E54000040,"NHS Bath and North East Somerset, Swindon and Wiltshire Integrated Care Board",E06000054,Wiltshire,E54000040,"Bath and North East Somerset, Swindon and Wiltshire",,,,E55000009,South West,E12000009,South West,England
SR47TP,Sunderland Royal Hospital,-1.4110182,54.903063,E01008704,Sunderland 011B,Sunderland 011B,Sunderland 011B,438033.0,556876.0,-1.40839,54.90517,E02001801,Sunderland 011,E38000176,NHS Sunderland CCG,E54000050,NHS North East and North Cumbria Integrated Care Board,E08000024,Sunderland,E54000049,Cumbria and North East,,,,E55000004,Northern England,E12000001,North East,England
SS00RY,Southend Hospital,0.68909337,51.553836,E01015860,Southend-on-Sea 004D,Southend-on-Sea 004D,Southend-on-Sea 004D,586933.0,187370.0,0.695047,51.55424,E02003282,Southend-on-Sea 004,E38000168,NHS Southend CCG,E54000026,NHS Mid and South Essex Integrated Care Board,E06000033,Southend-on-Sea,E54000026,Mid and South Essex,,,,E55000006,East of England,E12000006,East of England,England
SS165NL,Basildon University Hospital,0.45055726,51.557686,E01021297,Basildon 020D,Basildon 020D,Basildon 020D,569960.0,187429.0,0.450503,51.56013,E02004443,Basildon 020,E38000007,NHS Basildon and Brentwood CCG,E54000026,NHS Mid and South Essex Integrated Care Board,E07000066,Basildon,E54000026,Mid and South Essex,,,,E55000006,East of England,E12000006,East of England,England
ST46QG,Royal Stoke University Hospital,-2.2148723,53.004021,E01014294,Stoke-on-Trent 018F,Stoke-on-Trent 018F,Stoke-on-Trent 018F,386120.0,345108.0,-2.20828,53.00312,E02002968,Stoke-on-Trent 018,E38000175,NHS Stoke on Trent CCG,E54000010,NHS Staffordshire and Stoke-on-Trent Integrated Care Board,E06000021,Stoke-on-Trent,E54000010,Staffordshire and Stoke on Trent,,,,E55000008,West Midlands,E12000005,West Midlands,England
SW170QT,St George's Hospital HASU,-0.17574589,51.426727,E01004617,Wandsworth 034D,Wandsworth 034D,Wandsworth 034D,526881.0,171258.0,-0.17637,51.42613,E02000956,Wandsworth 034,E38000193,NHS Wandsworth CCG,E54000031,NHS South West London Integrated Care Board,E09000032,Wandsworth,E54000031,South West London Health and Care Partnership,,,,E55000014,London,E12000007,London,England
SW66SX,Charing Cross Hospital HASU,-0.21272176,51.473716,E01001906,Hammersmith and Fulham 022C,Hammersmith and Fulham 022C,Hammersmith and Fulham 022C,524352.0,176663.0,-0.21083,51.47527,E02000393,Hammersmith and Fulham 022,E38000070,NHS Hammersmith and Fulham CCG,E54000027,NHS North West London Integrated Care Board,E09000013,Hammersmith and Fulham,E54000027,North West London Health and Care Partnership,,,,E55000014,London,E12000007,London,England
SY231ER,Bronglais Hospital,-4.0715775,52.416068,W01000512,Ceredigion 002A,Ceredigion 002A,Ceredigion 002A,259109.0,281629.0,-4.07296,52.41447,W02000117,Ceredigion 002,,,,,W06000008,Ceredigion,,,W11000025,Hywel Dda University Health Board,Bwrdd Iechyd Prifysgol Hywel Dda,,,W92000004,Wales,Wales
TA15DA,Musgrove Park Hospital,-3.1197783,51.01197,E01029302,Taunton Deane 011D,Taunton Deane 011D,Taunton Deane 011D,321674.0,124269.0,-3.1179,51.01244,E02006109,Taunton Deane 011,E38000150,NHS Somerset CCG,E54000038,NHS Somerset Integrated Care Board,E07000190,Taunton Deane,E54000038,Somerset,,,,E55000009,South West,E12000009,South West,England
TF16TF,Princess Royal Hospital Telford,-2.510547,52.712417,E01014102,Telford and Wrekin 007A,Telford and Wrekin 007A,Telford and Wrekin 007A,365679.0,313565.0,-2.50953,52.71865,E02002934,Telford and Wrekin 007,E38000183,NHS Telford and Wrekin CCG,E54000011,"NHS Shropshire, Telford and Wrekin Integrated Care Board",E06000020,Telford and Wrekin,E54000011,Shropshire and Telford and Wrekin,,,,E55000008,West Midlands,E12000005,West Midlands,England
TN240LZ,William Harvey Hospital,0.91620878,51.141489,E01024004,Ashford 006E,Ashford 006E,Ashford 006E,603575.0,142234.0,0.908982,51.14316,E02005001,Ashford 006,E38000002,NHS Ashford CCG,E54000032,NHS Kent and Medway Integrated Care Board,E07000105,Ashford,E54000032,Kent and Medway,,,,E55000010,South East Coast,E12000008,South East,England
TQ27AA,Torbay Hospital,-3.5537901,50.482325,E01015251,Torbay 003C,Torbay 003C,Torbay 003C,289687.0,65704.0,-3.55616,50.48072,E02003156,Torbay 003,E38000230,NHS Devon CCG,E54000037,NHS Devon Integrated Care Board,E06000027,Torbay,E54000037,Devon,,,,E55000009,South West,E12000009,South West,England
TR13LQ,Royal Cornwall Hospital,-5.0946045,50.267934,E01018855,Cornwall 043C,Cornwall 043C,Cornwall 043C,179334.0,45126.0,-5.09766,50.26477,E02003909,Cornwall 043,E38000089,NHS Kernow CCG,E54000036,NHS Cornwall and the Isles of Scilly Integrated Care Board,E06000052,Cornwall,E54000036,Cornwall and the Isles of Scilly,,,,E55000009,South West,E12000009,South West,England
TS198PE,University Hospitals of North Tees and Hartlepool,-1.3467595,54.582933,E01032544,Stockton-on-Tees 009H,Stockton-on-Tees 009H,Stockton-on-Tees 009H,442142.0,520798.0,-1.34953,54.58065,E02002543,Stockton-on-Tees 009,E38000075,NHS Hartlepool and Stockton-on-Tees CCG,E54000050,NHS North East and North Cumbria Integrated Care Board,E06000004,Stockton-on-Tees,E54000049,Cumbria and North East,,,,E55000004,Northern England,E12000001,North East,England
TS43BW,James Cook University Hospital,-1.2142736,54.552075,E01012018,Middlesbrough 011A,Middlesbrough 011A,Middlesbrough 011A,450737.0,517913.0,-1.21706,54.55394,E02002506,Middlesbrough 011,E38000162,NHS South Tees CCG,E54000050,NHS North East and North Cumbria Integrated Care Board,E06000002,Middlesbrough,E54000049,Cumbria and North East,,,,E55000004,Northern England,E12000001,North East,England
WD180HB,Watford General Hospital,-0.40447202,51.649051,E01023901,Watford 010C,Watford 010C,Watford 010C,510560.0,196042.0,-0.40325,51.65231,E02004977,Watford 010,E38000079,NHS Herts Valleys CCG,E54000025,NHS Hertfordshire and West Essex Integrated Care Board,E07000103,Watford,E54000025,Hertfordshire and West Essex,,,,E55000006,East of England,E12000006,East of England,England
WF14DG,Pinderfields Hospital,-1.4884777,53.69258,E01011884,Wakefield 017A,Wakefield 017A,Wakefield 017A,433476.0,421980.0,-1.49451,53.69321,E02002454,Wakefield 017,E38000190,NHS Wakefield CCG,E54000054,NHS West Yorkshire Integrated Care Board,E08000036,Wakefield,E54000005,West Yorkshire and Harrogate (Health and Care Partnership),,,,E55000005,Yorkshire and The Humber,E12000003,Yorkshire and The Humber,England
WR51DD,Worcestershire Royal Hospital,-2.1811435,52.191202,E01032309,Worcester 010D,Worcester 010D,Worcester 010D,387034.0,254422.0,-2.19107,52.18789,E02006743,Worcester 010,E38000166,NHS South Worcestershire CCG,E54000019,NHS Herefordshire and Worcestershire Integrated Care Board,E07000237,Worcester,E54000019,Herefordshire and Worcestershire,,,,E55000008,West Midlands,E12000005,West Midlands,England
WV100QP,New Cross Hospital,-2.0963786,52.598247,E01010476,Wolverhampton 015E,Wolverhampton 015E,Wolverhampton 015E,393666.0,300014.0,-2.09493,52.59789,E02002163,Wolverhampton 015,E38000210,NHS Wolverhampton CCG,E54000062,NHS Black Country Integrated Care Board,E08000031,Wolverhampton,E54000016,The Black Country and West Birmingham,,,,E55000008,West Midlands,E12000005,West Midlands,England
YO318HE,York Hospital,-1.0836401,53.970547,E01013343,York 009A,York 009A,York 009A,460344.0,453106.0,-1.08157,53.97053,E02002780,York 009,E38000188,NHS Vale of York CCG,E54000051,NHS Humber and North Yorkshire Integrated Care Board,E06000014,York,E54000006,"Humber, Coast and Vale",,,,E55000005,Yorkshire and The Humber,E12000003,Yorkshire and The Humber,England
